[{"OBJECT_NAME":"STARLINK-3150","OBJECT_ID":"2021-104AW","EPOCH":"2025-08-06T22:03:51.270624","MEAN_MOTION":15.08835159,"ECCENTRICITY":0.0001512,"INCLINATION":53.2177,"RA_OF_ASC_NODE":103.3036,"ARG_OF_PERICENTER":100.8718,"MEAN_ANOMALY":259.2445,"EPHEMERIS_TYPE":0,"CLASSIFICATION_TYPE":"U","NORAD_CAT_ID":49452,"ELEMENT_SET_NO":999,"REV_AT_EPOCH":20635,"BSTAR":-4.1649023e-5,"MEAN_MOTION_DOT":-9.51e-6,"MEAN_MOTION_DDOT":0},{"OBJECT_NAME":"STARLINK-3129","OBJECT_ID":"2021-104AX","EPOCH":"2025-08-06T22:19:45.523200","MEAN_MOTION":15.08846353,"ECCENTRICITY":0.00016707,"INCLINATION":53.2181,"RA_OF_ASC_NODE":103.2991,"ARG_OF_PERICENTER":89.9586,"MEAN_ANOMALY":270.1598,"EPHEMERIS_TYPE":0,"CLASSIFICATION_TYPE":"U","NORAD_CAT_ID":49453,"ELEMENT_SET_NO":999,"REV_AT_EPOCH":20635,"BSTAR":-6.0457346e-5,"MEAN_MOTION_DOT":-1.25e-5,"MEAN_MOTION_DDOT":0},{"OBJECT_NAME":"STARLINK-3160","OBJECT_ID":"2021-104AY","EPOCH":"2025-08-06T22:13:03.708768","MEAN_MOTION":15.08837646,"ECCENTRICITY":0.00014602,"INCLINATION":53.2172,"RA_OF_ASC_NODE":103.2356,"ARG_OF_PERICENTER":95.0969,"MEAN_ANOMALY":265.019,"EPHEMERIS_TYPE":0,"CLASSIFICATION_TYPE":"U","NORAD_CAT_ID":49454,"ELEMENT_SET_NO":999,"REV_AT_EPOCH":20635,"BSTAR":-1.0959308e-5,"MEAN_MOTION_DOT":-4.62e-6,"MEAN_MOTION_DDOT":0},{"OBJECT_NAME":"STARLINK-3145","OBJECT_ID":"2021-104AZ","EPOCH":"2025-08-06T21:51:51.888672","MEAN_MOTION":15.08835626,"ECCENTRICITY":0.00013272,"INCLINATION":53.217,"RA_OF_ASC_NODE":103.3028,"ARG_OF_PERICENTER":93.6549,"MEAN_ANOMALY":266.4595,"EPHEMERIS_TYPE":0,"CLASSIFICATION_TYPE":"U","NORAD_CAT_ID":49455,"ELEMENT_SET_NO":999,"REV_AT_EPOCH":20635,"BSTAR":2.7766051e-5,"MEAN_MOTION_DOT":1.54e-6,"MEAN_MOTION_DDOT":0},{"OBJECT_NAME":"STARLINK-3124","OBJECT_ID":"2021-104BA","EPOCH":"2025-08-06T22:09:08.966016","MEAN_MOTION":15.08835728,"ECCENTRICITY":0.00014515,"INCLINATION":53.2172,"RA_OF_ASC_NODE":103.2948,"ARG_OF_PERICENTER":92.0467,"MEAN_ANOMALY":268.0692,"EPHEMERIS_TYPE":0,"CLASSIFICATION_TYPE":"U","NORAD_CAT_ID":49456,"ELEMENT_SET_NO":999,"REV_AT_EPOCH":20635,"BSTAR":3.6137265e-5,"MEAN_MOTION_DOT":2.87e-6,"MEAN_MOTION_DDOT":0},{"OBJECT_NAME":"STARLINK-3132","OBJECT_ID":"2021-104BB","EPOCH":"2025-08-06T21:47:57.315264","MEAN_MOTION":15.08817859,"ECCENTRICITY":0.00015514,"INCLINATION":53.2194,"RA_OF_ASC_NODE":103.3276,"ARG_OF_PERICENTER":93.211,"MEAN_ANOMALY":266.906,"EPHEMERIS_TYPE":0,"CLASSIFICATION_TYPE":"U","NORAD_CAT_ID":49457,"ELEMENT_SET_NO":999,"REV_AT_EPOCH":20635,"BSTAR":4.4205109e-5,"MEAN_MOTION_DOT":4.15e-6,"MEAN_MOTION_DDOT":0},{"OBJECT_NAME":"STARLINK-3156","OBJECT_ID":"2021-104BC","EPOCH":"2025-08-06T21:57:09.878688","MEAN_MOTION":15.08834404,"ECCENTRICITY":0.0001354,"INCLINATION":53.2176,"RA_OF_ASC_NODE":103.2855,"ARG_OF_PERICENTER":91.2417,"MEAN_ANOMALY":268.873,"EPHEMERIS_TYPE":0,"CLASSIFICATION_TYPE":"U","NORAD_CAT_ID":49458,"ELEMENT_SET_NO":999,"REV_AT_EPOCH":20635,"BSTAR":7.4256132e-5,"MEAN_MOTION_DOT":8.94e-6,"MEAN_MOTION_DDOT":0},{"OBJECT_NAME":"STARLINK-3141","OBJECT_ID":"2021-104BD","EPOCH":"2025-08-06T23:16:38.450208","MEAN_MOTION":15.0884275,"ECCENTRICITY":0.00013067,"INCLINATION":53.2156,"RA_OF_ASC_NODE":103.0349,"ARG_OF_PERICENTER":83.9012,"MEAN_ANOMALY":276.2129,"EPHEMERIS_TYPE":0,"CLASSIFICATION_TYPE":"U","NORAD_CAT_ID":49459,"ELEMENT_SET_NO":999,"REV_AT_EPOCH":20636,"BSTAR":7.8748303e-5,"MEAN_MOTION_DOT":9.66e-6,"MEAN_MOTION_DDOT":0},{"OBJECT_NAME":"STARLINK-3140","OBJECT_ID":"2021-104BE","EPOCH":"2025-08-06T23:11:20.834304","MEAN_MOTION":15.08851524,"ECCENTRICITY":0.00013024,"INCLINATION":53.2168,"RA_OF_ASC_NODE":103.0524,"ARG_OF_PERICENTER":96.1049,"MEAN_ANOMALY":264.0092,"EPHEMERIS_TYPE":0,"CLASSIFICATION_TYPE":"U","NORAD_CAT_ID":49460,"ELEMENT_SET_NO":999,"REV_AT_EPOCH":20635,"BSTAR":-9.3182315e-5,"MEAN_MOTION_DOT":-1.771e-5,"MEAN_MOTION_DDOT":0},{"OBJECT_NAME":"STARLINK-3219","OBJECT_ID":"2021-115A","EPOCH":"2025-08-06T20:04:35.214816","MEAN_MOTION":15.08847529,"ECCENTRICITY":0.00012133,"INCLINATION":53.2183,"RA_OF_ASC_NODE":33.8532,"ARG_OF_PERICENTER":98.6463,"MEAN_ANOMALY":261.4667,"EPHEMERIS_TYPE":0,"CLASSIFICATION_TYPE":"U","NORAD_CAT_ID":49724,"ELEMENT_SET_NO":999,"REV_AT_EPOCH":20309,"BSTAR":-3.507817e-6,"MEAN_MOTION_DOT":-3.44e-6,"MEAN_MOTION_DDOT":0},{"OBJECT_NAME":"STARLINK-3218","OBJECT_ID":"2021-115B","EPOCH":"2025-08-06T20:36:22.652928","MEAN_MOTION":15.08833154,"ECCENTRICITY":0.00013221,"INCLINATION":53.2181,"RA_OF_ASC_NODE":33.6401,"ARG_OF_PERICENTER":99.4604,"MEAN_ANOMALY":260.6538,"EPHEMERIS_TYPE":0,"CLASSIFICATION_TYPE":"U","NORAD_CAT_ID":49725,"ELEMENT_SET_NO":999,"REV_AT_EPOCH":20310,"BSTAR":0.00012808138,"MEAN_MOTION_DOT":1.751e-5,"MEAN_MOTION_DDOT":0},{"OBJECT_NAME":"STARLINK-3242","OBJECT_ID":"2021-115D","EPOCH":"2025-08-06T21:06:49.240512","MEAN_MOTION":15.08839989,"ECCENTRICITY":0.00013181,"INCLINATION":53.2174,"RA_OF_ASC_NODE":43.4393,"ARG_OF_PERICENTER":89.7056,"MEAN_ANOMALY":270.4088,"EPHEMERIS_TYPE":0,"CLASSIFICATION_TYPE":"U","NORAD_CAT_ID":49727,"ELEMENT_SET_NO":999,"REV_AT_EPOCH":20296,"BSTAR":0.00011269765,"MEAN_MOTION_DOT":1.506e-5,"MEAN_MOTION_DDOT":0},{"OBJECT_NAME":"STARLINK-3240","OBJECT_ID":"2021-115E","EPOCH":"2025-08-06T21:12:07.467264","MEAN_MOTION":15.08847587,"ECCENTRICITY":0.00011097,"INCLINATION":53.2178,"RA_OF_ASC_NODE":43.4236,"ARG_OF_PERICENTER":68.5573,"MEAN_ANOMALY":291.5537,"EPHEMERIS_TYPE":0,"CLASSIFICATION_TYPE":"U","NORAD_CAT_ID":49728,"ELEMENT_SET_NO":999,"REV_AT_EPOCH":20296,"BSTAR":2.1188822e-5,"MEAN_MOTION_DOT":4.9e-7,"MEAN_MOTION_DDOT":0},{"OBJECT_NAME":"STARLINK-3251","OBJECT_ID":"2021-115F","EPOCH":"2025-08-06T21:01:30.364896","MEAN_MOTION":15.08837427,"ECCENTRICITY":0.00015106,"INCLINATION":53.2181,"RA_OF_ASC_NODE":43.3397,"ARG_OF_PERICENTER":82.5046,"MEAN_ANOMALY":277.6118,"EPHEMERIS_TYPE":0,"CLASSIFICATION_TYPE":"U","NORAD_CAT_ID":49729,"ELEMENT_SET_NO":999,"REV_AT_EPOCH":20296,"BSTAR":-1.8309823e-5,"MEAN_MOTION_DOT":-5.79e-6,"MEAN_MOTION_DDOT":0},{"OBJECT_NAME":"STARLINK-3249","OBJECT_ID":"2021-115G","EPOCH":"2025-08-06T20:19:09.358176","MEAN_MOTION":15.08840531,"ECCENTRICITY":0.00014179,"INCLINATION":53.2176,"RA_OF_ASC_NODE":43.7816,"ARG_OF_PERICENTER":85.0048,"MEAN_ANOMALY":275.1106,"EPHEMERIS_TYPE":0,"CLASSIFICATION_TYPE":"U","NORAD_CAT_ID":49730,"ELEMENT_SET_NO":999,"REV_AT_EPOCH":20295,"BSTAR":8.4725381e-5,"MEAN_MOTION_DOT":1.061e-5,"MEAN_MOTION_DDOT":0},{"OBJECT_NAME":"STARLINK-3246","OBJECT_ID":"2021-115J","EPOCH":"2025-08-06T20:29:46.452768","MEAN_MOTION":15.08833738,"ECCENTRICITY":0.00014698,"INCLINATION":53.2175,"RA_OF_ASC_NODE":43.7118,"ARG_OF_PERICENTER":91.3563,"MEAN_ANOMALY":268.7598,"EPHEMERIS_TYPE":0,"CLASSIFICATION_TYPE":"U","NORAD_CAT_ID":49732,"ELEMENT_SET_NO":999,"REV_AT_EPOCH":20295,"BSTAR":0.00012266742,"MEAN_MOTION_DOT":1.665e-5,"MEAN_MOTION_DDOT":0}]
