STARLINK-3150           
1 49452U 21104AW  25218.91934341 -.00000951  00000+0 -41649-4 0  9998
2 49452  53.2177 103.3036 0001512 100.8718 259.2445 15.08835159206353
STARLINK-3129           
1 49453U 21104AX  25218.93038800 -.00001250  00000+0 -60457-4 0  9997
2 49453  53.2181 103.2991 0001670  89.9586 270.1598 15.08846353206352
STARLINK-3160           
1 49454U 21104AY  25218.92573737 -.00000462  00000+0 -10959-4 0  9996
2 49454  53.2172 103.2356 0001460  95.0969 265.0190 15.08837646206354
STARLINK-3145           
1 49455U 21104AZ  25218.91101723  .00000154  00000+0  27766-4 0  9998
2 49455  53.2170 103.3028 0001327  93.6549 266.4595 15.08835626206350
STARLINK-3124           
1 49456U 21104BA  25218.92302044  .00000287  00000+0  36137-4 0  9998
2 49456  53.2172 103.2948 0001451  92.0467 268.0692 15.08835728206352
STARLINK-3132           
1 49457U 21104BB  25218.90830226  .00000415  00000+0  44205-4 0  9993
2 49457  53.2194 103.3276 0001551  93.2110 266.9060 15.08817859206352
STARLINK-3156           
1 49458U 21104BC  25218.91469767  .00000894  00000+0  74256-4 0  9993
2 49458  53.2176 103.2855 0001354  91.2417 268.8730 15.08834404206354
STARLINK-3141           
1 49459U 21104BD  25218.96988947  .00000966  00000+0  78748-4 0  9995
2 49459  53.2156 103.0349 0001306  83.9012 276.2129 15.08842750206364
STARLINK-3140           
1 49460U 21104BE  25218.96621336 -.00001771  00000+0 -93182-4 0  9999
2 49460  53.2168 103.0524 0001302  96.1049 264.0092 15.08851524206358
STARLINK-3219           
1 49724U 21115A   25218.83651869 -.00000344  00000+0 -35078-5 0  9990
2 49724  53.2183  33.8532 0001213  98.6463 261.4667 15.08847529203092
STARLINK-3218           
1 49725U 21115B   25218.85859552  .00001751  00000+0  12808-3 0  9997
2 49725  53.2181  33.6401 0001322  99.4604 260.6538 15.08833154203100
STARLINK-3242           
1 49727U 21115D   25218.87973658  .00001506  00000+0  11270-3 0  9995
2 49727  53.2174  43.4393 0001318  89.7056 270.4088 15.08839989202965
STARLINK-3240           
1 49728U 21115E   25218.88341976  .00000049  00000+0  21189-4 0  9991
2 49728  53.2178  43.4236 0001109  68.5573 291.5537 15.08847587202969
STARLINK-3251           
1 49729U 21115F   25218.87604589 -.00000579  00000+0 -18310-4 0  9995
2 49729  53.2181  43.3397 0001510  82.5046 277.6118 15.08837427202960
STARLINK-3249           
1 49730U 21115G   25218.84663609  .00001061  00000+0  84725-4 0  9990
2 49730  53.2176  43.7816 0001417  85.0048 275.1106 15.08840531202951
STARLINK-3246           
1 49732U 21115J   25218.85400987  .00001665  00000+0  12267-3 0  9992
2 49732  53.2175  43.7118 0001469  91.3563 268.7598 15.08833738202950
